[{"OBJECT_NAME":"KUIPER-00183","OBJECT_ID":"2025-301F","EPOCH":"2026-03-09T22:00:01.999584","MEAN_MOTION":15.28555387,"ECCENTRICITY":0.00143222,"INCLINATION":51.8667,"RA_OF_ASC_NODE":65.0366,"ARG_OF_PERICENTER":58.1585,"MEAN_ANOMALY":99.3056,"EPHEMERIS_TYPE":0,"CLASSIFICATION_TYPE":"U","NORAD_CAT_ID":67138,"ELEMENT_SET_NO":999,"REV_AT_EPOCH":583,"BSTAR":-0.054814766,"MEAN_MOTION_DOT":-0.01408357,"MEAN_MOTION_DDOT":0},{"OBJECT_NAME":"DELTA 2 DEB [DPAF]","OBJECT_ID":"2006-016D","EPOCH":"2026-03-09T21:07:54.254784","MEAN_MOTION":15.23406385,"ECCENTRICITY":0.00032182,"INCLINATION":98.3285,"RA_OF_ASC_NODE":343.8839,"ARG_OF_PERICENTER":354.4951,"MEAN_ANOMALY":5.6247,"EPHEMERIS_TYPE":0,"CLASSIFICATION_TYPE":"U","NORAD_CAT_ID":29110,"ELEMENT_SET_NO":999,"REV_AT_EPOCH":6863,"BSTAR":0.0017599055,"MEAN_MOTION_DOT":0.00042014,"MEAN_MOTION_DDOT":0}]
